CCSDS_OMM_VERS = 2.0
CREATION_DATE  = 
ORIGINATOR     = 

OBJECT_NAME    = IDEFIX & ARIANE 42P R/B
OBJECT_ID      = 2002-021B
CENTER_NAME    = EARTH
REF_FRAME      = TEME
TIME_SYSTEM    = UTC
MEAN_ELEMENT_THEORY = SGP/SGP4

EPOCH          = 2026-01-25T06:50:12.337728
MEAN_MOTION    = 14.30990876
ECCENTRICITY   = .00111647
INCLINATION    = 98.5830
RA_OF_ASC_NODE = 324.4220
ARG_OF_PERICENTER = 320.2416
MEAN_ANOMALY   = 39.7948

EPHEMERIS_TYPE = 0
CLASSIFICATION_TYPE = U
NORAD_CAT_ID   = 27422
ELEMENT_SET_NO = 999
REV_AT_EPOCH   = 23781
BSTAR          = .24370206E-3
MEAN_MOTION_DOT = .598E-5
MEAN_MOTION_DDOT = 0

CCSDS_OMM_VERS = 2.0
CREATION_DATE  = 
ORIGINATOR     = 

OBJECT_NAME    = AQUA
OBJECT_ID      = 2002-022A
CENTER_NAME    = EARTH
REF_FRAME      = TEME
TIME_SYSTEM    = UTC
MEAN_ELEMENT_THEORY = SGP/SGP4

EPOCH          = 2026-01-25T07:12:09.573984
MEAN_MOTION    = 14.61858120
ECCENTRICITY   = .00019012
INCLINATION    = 98.4099
RA_OF_ASC_NODE = 351.9015
ARG_OF_PERICENTER = 65.9773
MEAN_ANOMALY   = 41.4489

EPHEMERIS_TYPE = 0
CLASSIFICATION_TYPE = U
NORAD_CAT_ID   = 27424
ELEMENT_SET_NO = 999
REV_AT_EPOCH   = 26239
BSTAR          = .38942205E-3
MEAN_MOTION_DOT = .1897E-4
MEAN_MOTION_DDOT = 0

CCSDS_OMM_VERS = 2.0
CREATION_DATE  = 
ORIGINATOR     = 

OBJECT_NAME    = CZ-4B R/B
OBJECT_ID      = 2002-024C
CENTER_NAME    = EARTH
REF_FRAME      = TEME
TIME_SYSTEM    = UTC
MEAN_ELEMENT_THEORY = SGP/SGP4

EPOCH          = 2026-01-25T03:32:00.415392
MEAN_MOTION    = 14.14538961
ECCENTRICITY   = .00507767
INCLINATION    = 98.8932
RA_OF_ASC_NODE = 78.7536
ARG_OF_PERICENTER = 145.8294
MEAN_ANOMALY   = 276.0939

EPHEMERIS_TYPE = 0
CLASSIFICATION_TYPE = U
NORAD_CAT_ID   = 27432
ELEMENT_SET_NO = 999
REV_AT_EPOCH   = 22308
BSTAR          = .7883855E-4
MEAN_MOTION_DOT = .109E-5
MEAN_MOTION_DDOT = 0

CCSDS_OMM_VERS = 2.0
CREATION_DATE  = 
ORIGINATOR     = 

OBJECT_NAME    = MIDORI II (ADEOS-II)
OBJECT_ID      = 2002-056A
CENTER_NAME    = EARTH
REF_FRAME      = TEME
TIME_SYSTEM    = UTC
MEAN_ELEMENT_THEORY = SGP/SGP4

EPOCH          = 2026-01-25T02:53:05.493408
MEAN_MOTION    = 14.29247591
ECCENTRICITY   = .00019858
INCLINATION    = 98.7698
RA_OF_ASC_NODE = 343.3188
ARG_OF_PERICENTER = 104.0676
MEAN_ANOMALY   = 256.0726

EPHEMERIS_TYPE = 0
CLASSIFICATION_TYPE = U
NORAD_CAT_ID   = 27597
ELEMENT_SET_NO = 999
REV_AT_EPOCH   = 20407
BSTAR          = .28022129E-3
MEAN_MOTION_DOT = .667E-5
MEAN_MOTION_DDOT = 0

CCSDS_OMM_VERS = 2.0
CREATION_DATE  = 
ORIGINATOR     = 

OBJECT_NAME    = H-2A R/B
OBJECT_ID      = 2002-056E
CENTER_NAME    = EARTH
REF_FRAME      = TEME
TIME_SYSTEM    = UTC
MEAN_ELEMENT_THEORY = SGP/SGP4

EPOCH          = 2026-01-24T11:18:41.025888
MEAN_MOTION    = 14.33723309
ECCENTRICITY   = .0069163
INCLINATION    = 98.3126
RA_OF_ASC_NODE = 346.5424
ARG_OF_PERICENTER = 293.9150
MEAN_ANOMALY   = 175.7162

EPHEMERIS_TYPE = 0
CLASSIFICATION_TYPE = U
NORAD_CAT_ID   = 27601
ELEMENT_SET_NO = 999
REV_AT_EPOCH   = 20777
BSTAR          = .25403722E-3
MEAN_MOTION_DOT = .682E-5
MEAN_MOTION_DDOT = 0

CCSDS_OMM_VERS = 2.0
CREATION_DATE  = 
ORIGINATOR     = 

OBJECT_NAME    = CZ-4B R/B
OBJECT_ID      = 2003-049C
CENTER_NAME    = EARTH
REF_FRAME      = TEME
TIME_SYSTEM    = UTC
MEAN_ELEMENT_THEORY = SGP/SGP4

EPOCH          = 2026-01-24T22:07:16.627008
MEAN_MOTION    = 14.54964845
ECCENTRICITY   = .0048392
INCLINATION    = 98.6829
RA_OF_ASC_NODE = 18.1274
ARG_OF_PERICENTER = 6.6949
MEAN_ANOMALY   = 353.4883

EPHEMERIS_TYPE = 0
CLASSIFICATION_TYPE = U
NORAD_CAT_ID   = 28059
ELEMENT_SET_NO = 999
REV_AT_EPOCH   = 18023
BSTAR          = .22068E-3
MEAN_MOTION_DOT = .913E-5
MEAN_MOTION_DDOT = 0

CCSDS_OMM_VERS = 2.0
CREATION_DATE  = 
ORIGINATOR     = 

OBJECT_NAME    = CZ-2C R/B
OBJECT_ID      = 2004-012C
CENTER_NAME    = EARTH
REF_FRAME      = TEME
TIME_SYSTEM    = UTC
MEAN_ELEMENT_THEORY = SGP/SGP4

EPOCH          = 2026-01-25T02:37:53.958720
MEAN_MOTION    = 15.59534460
ECCENTRICITY   = .00169797
INCLINATION    = 97.7332
RA_OF_ASC_NODE = 86.4217
ARG_OF_PERICENTER = 110.7853
MEAN_ANOMALY   = 249.5223

EPHEMERIS_TYPE = 0
CLASSIFICATION_TYPE = U
NORAD_CAT_ID   = 28222
ELEMENT_SET_NO = 999
REV_AT_EPOCH   = 19747
BSTAR          = .74433167E-3
MEAN_MOTION_DOT = .5969E-3
MEAN_MOTION_DDOT = 0

CCSDS_OMM_VERS = 2.0
CREATION_DATE  = 
ORIGINATOR     = 

OBJECT_NAME    = SL-16 R/B
OBJECT_ID      = 2004-021B
CENTER_NAME    = EARTH
REF_FRAME      = TEME
TIME_SYSTEM    = UTC
MEAN_ELEMENT_THEORY = SGP/SGP4

EPOCH          = 2026-01-25T02:38:33.592128
MEAN_MOTION    = 14.14591904
ECCENTRICITY   = .00026368
INCLINATION    = 71.0026
RA_OF_ASC_NODE = 323.9491
ARG_OF_PERICENTER = 120.1432
MEAN_ANOMALY   = 239.9952

EPHEMERIS_TYPE = 0
CLASSIFICATION_TYPE = U
NORAD_CAT_ID   = 28353
ELEMENT_SET_NO = 999
REV_AT_EPOCH   = 11667
BSTAR          = -.58459072E-4
MEAN_MOTION_DOT = -.16E-5
MEAN_MOTION_DDOT = 0

CCSDS_OMM_VERS = 2.0
CREATION_DATE  = 
ORIGINATOR     = 

OBJECT_NAME    = CZ-4B R/B
OBJECT_ID      = 2004-035C
CENTER_NAME    = EARTH
REF_FRAME      = TEME
TIME_SYSTEM    = UTC
MEAN_ELEMENT_THEORY = SGP/SGP4

EPOCH          = 2026-01-25T01:14:04.142976
MEAN_MOTION    = 15.28215245
ECCENTRICITY   = .00341476
INCLINATION    = 97.3566
RA_OF_ASC_NODE = 59.8305
ARG_OF_PERICENTER = 122.0054
MEAN_ANOMALY   = 238.4512

EPHEMERIS_TYPE = 0
CLASSIFICATION_TYPE = U
NORAD_CAT_ID   = 28415
ELEMENT_SET_NO = 999
REV_AT_EPOCH   = 17324
BSTAR          = .43350222E-3
MEAN_MOTION_DOT = .12059E-3
MEAN_MOTION_DDOT = 0

CCSDS_OMM_VERS = 2.0
CREATION_DATE  = 
ORIGINATOR     = 

OBJECT_NAME    = CZ-2C R/B
OBJECT_ID      = 2004-046B
CENTER_NAME    = EARTH
REF_FRAME      = TEME
TIME_SYSTEM    = UTC
MEAN_ELEMENT_THEORY = SGP/SGP4

EPOCH          = 2026-01-25T07:00:55.193472
MEAN_MOTION    = 14.26973214
ECCENTRICITY   = .01382588
INCLINATION    = 98.2000
RA_OF_ASC_NODE = 302.9695
ARG_OF_PERICENTER = 283.4028
MEAN_ANOMALY   = 75.1774

EPHEMERIS_TYPE = 0
CLASSIFICATION_TYPE = U
NORAD_CAT_ID   = 28480
ELEMENT_SET_NO = 999
REV_AT_EPOCH   = 10231
BSTAR          = .14322845E-3
MEAN_MOTION_DOT = .343E-5
MEAN_MOTION_DDOT = 0

CCSDS_OMM_VERS = 2.0
CREATION_DATE  = 
ORIGINATOR     = 

OBJECT_NAME    = ARIANE 5 R/B
OBJECT_ID      = 2004-049H
CENTER_NAME    = EARTH
REF_FRAME      = TEME
TIME_SYSTEM    = UTC
MEAN_ELEMENT_THEORY = SGP/SGP4

EPOCH          = 2026-01-25T04:17:06.961920
MEAN_MOTION    = 14.85158973
ECCENTRICITY   = .00852627
INCLINATION    = 98.2557
RA_OF_ASC_NODE = 192.0289
ARG_OF_PERICENTER = 131.5822
MEAN_ANOMALY   = 229.2741

EPHEMERIS_TYPE = 0
CLASSIFICATION_TYPE = U
NORAD_CAT_ID   = 28499
ELEMENT_SET_NO = 999
REV_AT_EPOCH   = 13933
BSTAR          = .19949625E-3
MEAN_MOTION_DOT = .1759E-4
MEAN_MOTION_DDOT = 0

CCSDS_OMM_VERS = 2.0
CREATION_DATE  = 
ORIGINATOR     = 

OBJECT_NAME    = CZ-2D R/B
OBJECT_ID      = 2005-024B
CENTER_NAME    = EARTH
REF_FRAME      = TEME
TIME_SYSTEM    = UTC
MEAN_ELEMENT_THEORY = SGP/SGP4

EPOCH          = 2026-01-24T23:24:57.521664
MEAN_MOTION    = 15.56299723
ECCENTRICITY   = .0005683
INCLINATION    = 97.3629
RA_OF_ASC_NODE = 38.6479
ARG_OF_PERICENTER = 155.8671
MEAN_ANOMALY   = 204.2851

EPHEMERIS_TYPE = 0
CLASSIFICATION_TYPE = U
NORAD_CAT_ID   = 28738
ELEMENT_SET_NO = 999
REV_AT_EPOCH   = 13297
BSTAR          = .66045E-3
MEAN_MOTION_DOT = .46565E-3
MEAN_MOTION_DDOT = 0

